OBJECT_NAME,OBJECT_ID,EPOCH,MEAN_MOTION,ECCENTRICITY,INCLINATION,RA_OF_ASC_NODE,ARG_OF_PERICENTER,MEAN_ANOMALY,EPHEMERIS_TYPE,CLASSIFICATION_TYPE,NORAD_CAT_ID,ELEMENT_SET_NO,REV_AT_EPOCH,BSTAR,MEAN_MOTION_DOT,MEAN_MOTION_DDOT
GLOBALSTAR M069,2007-020C,2026-06-30T12:40:50.916576,12.23471685,.00020287,52.0002,214.3659,177.4741,335.0354,0,U,31573,999,88043,.23114651E-3,-.68E-6,0
GLOBALSTAR M072,2007-020D,2026-06-29T22:58:35.140224,11.91658408,.00015411,51.9939,66.2480,3.4855,9.4013,0,U,31574,999,87650,.13457238E-3,-.74E-6,0
GLOBALSTAR M066,2007-048C,2026-06-29T19:40:04.679904,12.30387146,.0005654,51.9601,21.6487,70.5663,303.1764,0,U,32265,999,86178,-.17873346E-4,-.97E-6,0
GLOBALSTAR M079,2010-054A,2026-06-29T22:53:02.120928,12.62266282,.00009712,52.0045,69.8078,50.9582,322.1092,0,U,37188,999,72416,.70790603E-4,-.91E-6,0
GLOBALSTAR M074,2010-054B,2026-06-30T14:41:10.392576,12.62261924,.00007656,52.0027,67.0661,71.8333,294.8987,0,U,37189,999,72485,.12637951E-3,-.81E-6,0
GLOBALSTAR M076,2010-054C,2026-06-30T00:09:03.987360,12.62261956,.00009845,52.0034,69.1142,66.1734,307.0524,0,U,37190,999,72449,.78097073E-4,-.9E-6,0
GLOBALSTAR M077,2010-054D,2026-06-30T05:33:21.281184,11.67547986,.00025227,51.9933,146.1863,196.5323,268.4026,0,U,37191,999,72266,-.27181343E-3,-.93E-6,0
GLOBALSTAR M075,2010-054E,2026-06-30T02:50:28.058784,12.62267468,.00004729,51.9943,110.8200,40.2705,62.7171,0,U,37192,999,72357,-.9897479E-5,-.106E-5,0
GLOBALSTAR M073,2010-054F,2026-06-30T11:50:35.190240,12.62266772,.00010926,52.0077,23.7889,73.0755,293.5896,0,U,37193,999,72561,.10525458E-3,-.85E-6,0
GLOBALSTAR M083,2011-033A,2026-06-30T03:31:02.759808,12.62263706,.000095,51.9879,333.0556,86.9040,83.9837,0,U,37739,999,69458,.90647231E-4,-.88E-6,0
GLOBALSTAR M088,2011-033B,2026-06-30T12:03:57.794400,12.62269094,.00003942,52.0197,238.4325,146.6106,322.1682,0,U,37740,999,69017,.17393755E-3,-.73E-6,0
GLOBALSTAR M091,2011-033C,2026-06-30T08:32:45.097728,12.62264150,.00000354,51.9967,201.8237,324.1113,138.6403,0,U,37741,999,69094,.42867945E-4,-.96E-6,0
GLOBALSTAR M085,2011-033D,2026-06-30T06:21:29.822400,12.62264202,.000042,52.0103,153.4032,6.2720,102.1410,0,U,37742,999,69144,-.80968587E-4,-.118E-5,0
GLOBALSTAR M081,2011-033E,2026-06-30T03:02:38.359968,12.62265317,.00003074,51.9933,156.2450,36.7140,43.6014,0,U,37743,999,69157,-.63496829E-4,-.115E-5,0
GLOBALSTAR M089,2011-033F,2026-06-30T00:11:26.854080,12.62267406,.00005314,51.9924,110.7635,79.4570,1.3487,0,U,37744,999,69240,-.43173786E-4,-.112E-5,0
GLOBALSTAR M084,2011-080A,2026-06-29T16:32:38.958720,12.62267660,.0001086,52.0027,339.2213,106.4086,265.7978,0,U,38040,999,67034,.19041281E-4,-.1E-5,0
GLOBALSTAR M080,2011-080B,2026-06-30T04:05:50.696160,12.62265245,.00004288,52.0089,339.4786,77.2860,93.5785,0,U,38041,999,67052,.8755075E-5,-.102E-5,0
GLOBALSTAR M082,2011-080C,2026-06-30T11:35:06.114624,12.62263767,.00004274,52.0084,294.0319,109.0908,329.9470,0,U,38042,999,67127,.84045E-4,-.89E-6,0
GLOBALSTAR M092,2011-080D,2026-06-30T14:31:22.544256,12.62267234,.00008425,52.0098,24.0564,82.9609,311.7855,0,U,38043,999,66974,.8273759E-4,-.89E-6,0
GLOBALSTAR M090,2011-080E,2026-06-30T12:13:57.699840,12.62252679,.00005788,52.0131,287.9099,103.5627,337.2279,0,U,38044,999,67139,.83181944E-4,-.89E-6,0
GLOBALSTAR M086,2011-080F,2026-06-30T10:49:37.891200,12.62287368,.0001684,51.9905,287.9960,89.5744,347.0758,0,U,38045,999,67133,.18868516E-3,-.7E-6,0
GLOBALSTAR M097,2013-005A,2026-06-30T11:10:50.583072,12.62271297,.00001348,52.0014,202.9153,64.2931,295.7949,0,U,39072,999,61858,.68022041E-4,-.92E-6,0
GLOBALSTAR M093,2013-005B,2026-06-30T08:38:10.914720,12.62266180,.0000288,52.0072,196.5889,35.2496,324.8389,0,U,39073,999,61852,.5003995E-4,-.95E-6,0
GLOBALSTAR M094,2013-005C,2026-06-30T02:55:54.543648,12.62268427,.00007187,51.9952,111.4155,33.3248,326.7664,0,U,39074,999,62010,-.90913897E-4,-.12E-5,0
GLOBALSTAR M096,2013-005D,2026-06-30T05:09:23.554080,12.62265664,.00003553,52.0047,159.9450,9.2279,350.8594,0,U,39075,999,61903,-.10507142E-3,-.123E-5,0
GLOBALSTAR M078,2013-005E,2026-06-30T12:06:43.419744,12.62260150,.00005399,51.9861,243.0563,287.1640,72.9167,0,U,39076,999,61769,.51406491E-3,-.12E-6,0
GLOBALSTAR M095,2013-005F,2026-06-30T12:45:11.395296,12.62263818,.00000748,52.0067,240.5978,14.7808,345.3061,0,U,39077,999,61755,.21928966E-3,-.64E-6,0
GLOBALSTAR M087,2022-064A,2026-06-30T13:04:09.856128,12.62269254,.00009164,52.0010,21.7870,64.3797,295.7165,0,U,52888,999,19282,.29216741E-4,-.99E-6,0
